COSMOS 2527 [GLONASS-M] 
1 43508U 18053A   26184.03962689 -.00000007  00000+0  00000+0 0  9997
2 43508  65.5857  73.3790 0006584 232.7323 127.2748  2.13102181 62617
COSMOS 2529 [GLONASS-M] 
1 43687U 18086A   26183.19741874  .00000081  00000+0  00000+0 0  9999
2 43687  64.2962 192.0874 0012102 256.3420 103.5558  2.13102148 59607
COSMOS 2534 [GLONASS-M] 
1 44299U 19030A   26180.66029704  .00000085  00000+0  00000+0 0  9993
2 44299  64.3700 192.1964 0013517 275.0224  73.0621  2.13102425 55189
COSMOS 2544 [GLONASS-M] 
1 44850U 19088A   26183.51498774 -.00000008  00000+0  00000+0 0  9999
2 44850  65.5733  73.2191 0012628 256.5667 103.3590  2.13103168 51047
COSMOS 2545 [GLONASS-M] 
1 45358U 20018A   26184.64845456 -.00000045  00000+0  00000+0 0  9997
2 45358  64.3444 311.8403 0009028 230.0373 129.8930  2.13102788 49017
COSMOS 2547 [GLONASS-K] 
1 46805U 20075A   26186.24588939  .00000102  00000+0  00000+0 0  9999
2 46805  64.6010 191.8728 0009432 239.8762 120.0573  2.13100192 44299
COSMOS 2557 [GLONASS-K] 
1 52984U 22075A   26185.47156976 -.00000045  00000+0  00000+0 0  9999
2 52984  64.2874 313.8770 0010733 271.9637  87.9233  2.13102284 31086
COSMOS 2559 [GLONASS-K] 
1 54031U 22130A   26183.88345398 -.00000049  00000+0  00000+0 0  9991
2 54031  64.2611 314.0154 0012880 179.7670 180.2387  2.13101779 29022
COSMOS 2564 [GLONASS-M] 
1 54377U 22161A   26185.60367367  .00000096  00000+0  00000+0 0  9991
2 54377  64.7433 192.1335 0012271 225.1181 134.8097  2.13102039 28005
COSMOS 2569 [GLONASS-K2]
1 57517U 23114A   26186.08526413 -.00000011  00000+0  00000+0 0  9999
2 57517  65.3121  72.0171 0010021 296.4215  63.5433  2.13103774 22642
COSMOS 2584 [GLONASS-K2]
1 63130U 25042A   26185.50280755 -.00000010  00000+0  00000+0 0  9990
2 63130  65.0947  72.2135 0006059 222.1818 137.8396  2.13103855 10411
COSMOS 2596 [GLONASS-K1]
1 65590U 25206B   26185.11455839 -.00000045  00000+0  00000+0 0  9996
2 65590  64.6242 314.3970 0011141 309.2418 229.0730  2.13100941  6272
