{"fetched_at":"2026-07-05T17:36:05.958Z","source":"https://celestrak.org/NORAD/elements/gp.php?GROUP=glo-ops&FORMAT=JSON","constellation":"glonass","records":[{"OBJECT_NAME":"COSMOS 2527 (756)","OBJECT_ID":"2018-053A","EPOCH":"2026-07-03T00:57:03.763296","CLASSIFICATION_TYPE":"U","MEAN_MOTION":2.13102181,"ECCENTRICITY":0.00065848,"INCLINATION":65.5857,"RA_OF_ASC_NODE":73.379,"ARG_OF_PERICENTER":232.7323,"MEAN_ANOMALY":127.2748,"EPHEMERIS_TYPE":0,"NORAD_CAT_ID":43508,"ELEMENT_SET_NO":999,"REV_AT_EPOCH":6261,"BSTAR":0,"MEAN_MOTION_DOT":-7e-8,"MEAN_MOTION_DDOT":0},{"OBJECT_NAME":"COSMOS 2529 (757)","OBJECT_ID":"2018-086A","EPOCH":"2026-07-02T04:44:16.979136","CLASSIFICATION_TYPE":"U","MEAN_MOTION":2.13102148,"ECCENTRICITY":0.0012102,"INCLINATION":64.2962,"RA_OF_ASC_NODE":192.0874,"ARG_OF_PERICENTER":256.342,"MEAN_ANOMALY":103.5558,"EPHEMERIS_TYPE":0,"NORAD_CAT_ID":43687,"ELEMENT_SET_NO":999,"REV_AT_EPOCH":5960,"BSTAR":0,"MEAN_MOTION_DOT":8.1e-7,"MEAN_MOTION_DDOT":0},{"OBJECT_NAME":"COSMOS 2534 (758)","OBJECT_ID":"2019-030A","EPOCH":"2026-06-29T15:50:49.664256","CLASSIFICATION_TYPE":"U","MEAN_MOTION":2.13102425,"ECCENTRICITY":0.00135177,"INCLINATION":64.37,"RA_OF_ASC_NODE":192.1964,"ARG_OF_PERICENTER":275.0224,"MEAN_ANOMALY":73.0621,"EPHEMERIS_TYPE":0,"NORAD_CAT_ID":44299,"ELEMENT_SET_NO":999,"REV_AT_EPOCH":5518,"BSTAR":0,"MEAN_MOTION_DOT":8.5e-7,"MEAN_MOTION_DDOT":0},{"OBJECT_NAME":"COSMOS 2544 (759)","OBJECT_ID":"2019-088A","EPOCH":"2026-07-02T12:21:34.940736","CLASSIFICATION_TYPE":"U","MEAN_MOTION":2.13103168,"ECCENTRICITY":0.00126282,"INCLINATION":65.5733,"RA_OF_ASC_NODE":73.2191,"ARG_OF_PERICENTER":256.5667,"MEAN_ANOMALY":103.359,"EPHEMERIS_TYPE":0,"NORAD_CAT_ID":44850,"ELEMENT_SET_NO":999,"REV_AT_EPOCH":5104,"BSTAR":0,"MEAN_MOTION_DOT":-8e-8,"MEAN_MOTION_DDOT":0},{"OBJECT_NAME":"COSMOS 2545 (760)","OBJECT_ID":"2020-018A","EPOCH":"2026-07-03T15:33:46.473984","CLASSIFICATION_TYPE":"U","MEAN_MOTION":2.13102788,"ECCENTRICITY":0.0009028,"INCLINATION":64.3444,"RA_OF_ASC_NODE":311.8403,"ARG_OF_PERICENTER":230.0373,"MEAN_ANOMALY":129.893,"EPHEMERIS_TYPE":0,"NORAD_CAT_ID":45358,"ELEMENT_SET_NO":999,"REV_AT_EPOCH":4901,"BSTAR":0,"MEAN_MOTION_DOT":-4.5e-7,"MEAN_MOTION_DDOT":0},{"OBJECT_NAME":"COSMOS 2547 (705K)","OBJECT_ID":"2020-075A","EPOCH":"2026-07-05T05:54:04.843296","CLASSIFICATION_TYPE":"U","MEAN_MOTION":2.13100192,"ECCENTRICITY":0.00094326,"INCLINATION":64.601,"RA_OF_ASC_NODE":191.8728,"ARG_OF_PERICENTER":239.8762,"MEAN_ANOMALY":120.0573,"EPHEMERIS_TYPE":0,"NORAD_CAT_ID":46805,"ELEMENT_SET_NO":999,"REV_AT_EPOCH":4429,"BSTAR":0,"MEAN_MOTION_DOT":0.00000102,"MEAN_MOTION_DDOT":0},{"OBJECT_NAME":"COSMOS 2557 (706K)","OBJECT_ID":"2022-075A","EPOCH":"2026-07-04T11:19:03.627264","CLASSIFICATION_TYPE":"U","MEAN_MOTION":2.13102284,"ECCENTRICITY":0.00107334,"INCLINATION":64.2874,"RA_OF_ASC_NODE":313.877,"ARG_OF_PERICENTER":271.9637,"MEAN_ANOMALY":87.9233,"EPHEMERIS_TYPE":0,"NORAD_CAT_ID":52984,"ELEMENT_SET_NO":999,"REV_AT_EPOCH":3108,"BSTAR":0,"MEAN_MOTION_DOT":-4.5e-7,"MEAN_MOTION_DDOT":0},{"OBJECT_NAME":"COSMOS 2559 (707K)","OBJECT_ID":"2022-130A","EPOCH":"2026-07-02T21:12:10.423872","CLASSIFICATION_TYPE":"U","MEAN_MOTION":2.13101779,"ECCENTRICITY":0.001288,"INCLINATION":64.2611,"RA_OF_ASC_NODE":314.0154,"ARG_OF_PERICENTER":179.767,"MEAN_ANOMALY":180.2387,"EPHEMERIS_TYPE":0,"NORAD_CAT_ID":54031,"ELEMENT_SET_NO":999,"REV_AT_EPOCH":2902,"BSTAR":0,"MEAN_MOTION_DOT":-4.9e-7,"MEAN_MOTION_DDOT":0},{"OBJECT_NAME":"COSMOS 2564 (761)","OBJECT_ID":"2022-161A","EPOCH":"2026-07-04T14:29:17.405088","CLASSIFICATION_TYPE":"U","MEAN_MOTION":2.13102039,"ECCENTRICITY":0.00122713,"INCLINATION":64.7433,"RA_OF_ASC_NODE":192.1335,"ARG_OF_PERICENTER":225.1181,"MEAN_ANOMALY":134.8097,"EPHEMERIS_TYPE":0,"NORAD_CAT_ID":54377,"ELEMENT_SET_NO":999,"REV_AT_EPOCH":2800,"BSTAR":0,"MEAN_MOTION_DOT":9.6e-7,"MEAN_MOTION_DDOT":0},{"OBJECT_NAME":"COSMOS 2569 (703K)","OBJECT_ID":"2023-114A","EPOCH":"2026-07-05T02:02:46.820832","CLASSIFICATION_TYPE":"U","MEAN_MOTION":2.13103774,"ECCENTRICITY":0.00100216,"INCLINATION":65.3121,"RA_OF_ASC_NODE":72.0171,"ARG_OF_PERICENTER":296.4215,"MEAN_ANOMALY":63.5433,"EPHEMERIS_TYPE":0,"NORAD_CAT_ID":57517,"ELEMENT_SET_NO":999,"REV_AT_EPOCH":2264,"BSTAR":0,"MEAN_MOTION_DOT":-1.1e-7,"MEAN_MOTION_DDOT":0},{"OBJECT_NAME":"COSMOS 2584 (704K)","OBJECT_ID":"2025-042A","EPOCH":"2026-07-04T12:04:02.572320","CLASSIFICATION_TYPE":"U","MEAN_MOTION":2.13103855,"ECCENTRICITY":0.00060594,"INCLINATION":65.0947,"RA_OF_ASC_NODE":72.2135,"ARG_OF_PERICENTER":222.1818,"MEAN_ANOMALY":137.8396,"EPHEMERIS_TYPE":0,"NORAD_CAT_ID":63130,"ELEMENT_SET_NO":999,"REV_AT_EPOCH":1041,"BSTAR":0,"MEAN_MOTION_DOT":-1e-7,"MEAN_MOTION_DDOT":0},{"OBJECT_NAME":"COSMOS 2596 (708K)","OBJECT_ID":"2025-206B","EPOCH":"2026-07-04T02:44:57.844896","CLASSIFICATION_TYPE":"U","MEAN_MOTION":2.13100941,"ECCENTRICITY":0.00111417,"INCLINATION":64.6242,"RA_OF_ASC_NODE":314.397,"ARG_OF_PERICENTER":309.2418,"MEAN_ANOMALY":229.073,"EPHEMERIS_TYPE":0,"NORAD_CAT_ID":65590,"ELEMENT_SET_NO":999,"REV_AT_EPOCH":627,"BSTAR":0,"MEAN_MOTION_DOT":-4.5e-7,"MEAN_MOTION_DDOT":0}]}
